[{"OBJECT_NAME":"APRIZESAT 3","OBJECT_ID":"2009-041F","EPOCH":"2026-03-09T21:53:07.275264","MEAN_MOTION":14.95902996,"ECCENTRICITY":0.00628853,"INCLINATION":98.1904,"RA_OF_ASC_NODE":217.4844,"ARG_OF_PERICENTER":35.8471,"MEAN_ANOMALY":324.6944,"EPHEMERIS_TYPE":0,"CLASSIFICATION_TYPE":"U","NORAD_CAT_ID":35686,"ELEMENT_SET_NO":999,"REV_AT_EPOCH":90153,"BSTAR":0.00014818153,"MEAN_MOTION_DOT":1.656e-5,"MEAN_MOTION_DDOT":0},{"OBJECT_NAME":"STARLINK-4060","OBJECT_ID":"2022-086AB","EPOCH":"2026-03-09T14:01:41.760768","MEAN_MOTION":15.08831741,"ECCENTRICITY":0.0001187,"INCLINATION":53.2175,"RA_OF_ASC_NODE":194.5935,"ARG_OF_PERICENTER":85.005,"MEAN_ANOMALY":275.1078,"EPHEMERIS_TYPE":0,"CLASSIFICATION_TYPE":"U","NORAD_CAT_ID":53267,"ELEMENT_SET_NO":999,"REV_AT_EPOCH":20105,"BSTAR":7.4823e-5,"MEAN_MOTION_DOT":9.03e-6,"MEAN_MOTION_DDOT":0}]
